ACCESSION_NUMBER	CIK	REGISTRANT_NAME	FILE_NUM	LEI	ADDRESS1	ADDRESS2	CITY	STATE	COUNTRY	ZIP	PHONE
0001410368-25-032006	0001064641	SELECT SECTOR SPDR TRUST	811-08837	5493008JJKIPMEX3CO91	One Iron Street		Boston	US-MA	US	02210	866-732-8673
0001021882-25-000207	0001021882	VANGUARD SCOTTSDALE FUNDS	811-07803	549300Y88GQ3VLJIBX57	100 Vanguard Boulevard		Malvern	US-PA	US	19355	610-669-1000
0001021882-25-000208	0001021882	VANGUARD SCOTTSDALE FUNDS	811-07803	549300Y88GQ3VLJIBX57	100 Vanguard Boulevard		Malvern	US-PA	US	19355	610-669-1000
0001410368-25-032038	0001064641	SELECT SECTOR SPDR TRUST	811-08837	5493008JJKIPMEX3CO91	One Iron Street		Boston	US-MA	US	02210	866-732-8673
0001410368-25-032043	0001064642	SPDR SERIES TRUST	811-08839	5493004JVD6CQEEJSS37	One Iron Street		Boston	US-MA	US	02210	617-664-8594
0000035402-25-001329	0000819118	Fidelity Concord Street Trust	811-05251	EEX0N4ID1C226M44VF22	245 Summer Street		Boston	US-MA	US	02210	1-800-FIDELITY
0000035402-25-001351	0000081205	Fidelity Puritan Trust	811-00649	WDA1I420M36T9HTVU696	245 Summer Street		Boston	US-MA	US	02210	1-800-FIDELITY
0000035402-25-001475	0001364924	Fidelity Rutland Square Trust II	811-21991	1KZ3JN58GDRI3EZKKG06	245 Summer Street		Boston	US-MA	US	02210	1-800-FIDELITY
0002071691-25-007618	0001100663	iShares Trust	811-09729	5493000860OXIC4B5K91	400 Howard Street		San Francisco	US-CA	US	94105	800-474-2737
0000035402-25-001483	0001364924	Fidelity Rutland Square Trust II	811-21991	1KZ3JN58GDRI3EZKKG06	245 Summer Street		Boston	US-MA	US	02210	1-800-FIDELITY
0001193125-25-251557	0000826813	Intermediate Bond Fund of America	811-05446	R8LBW477MUD2IBLY9S75	333 South Hope Street	55th Floor	Los Angeles	US-CA	US	90071	9499755000
0002071691-25-003685	0000798250	MFS Series Trust II	811-04775	549300W3GYF777J7J466	111 Huntington Avenue		Boston	US-MA	US	02199	617-954-5000
0001410368-25-032172	0000915092	Master Investment Portfolio	811-08162	5493004HQXF0DFT60U28	100 Bellevue Parkway		Wilmington	US-DE	US	19809	800-441-7762
0001193125-25-299124	0000029440	Dodge & Cox Funds	811-00173	549300R3H2V5UI5MR803	555 California Street	40th Floor	San Francisco	US-CA	US	94104	415-981-1710
0001193125-25-299123	0000029440	Dodge & Cox Funds	811-00173	549300R3H2V5UI5MR803	555 California Street	40th Floor	San Francisco	US-CA	US	94104	415-981-1710
0002071691-25-004187	0001485894	J.P. Morgan Exchange-Traded Fund Trust	811-22903	5493001E1K1DVWDV2464	277 Park Avenue		New York	US-NY	US	10172	844-457-6383
0002071691-25-007667	0001738078	BlackRock Funds V	811-23339	54930077DSFQPJDWM487	100 Bellevue Parkway		Wilmington	US-DE	US	19809	800-441-7762
0001410368-25-019349	0000911507	LORD ABBETT INVESTMENT TRUST	811-07988	54930085JIVNI3FPKR71	30 HUDSON STREET		JERSEY CITY	US-NJ	US	07302-3973	201-827-2000
0000752177-25-000258	0000752177	VANGUARD CHESTER FUNDS	811-04098	54930034NOOD3YDKBZ64	100 Vanguard Boulevard		Malvern	US-PA	US	19355	610-669-1000
0000036405-25-000234	0000036405	VANGUARD INDEX FUNDS	811-02652	549300G6KNDK44WUN559	100 Vanguard Boulevard		Malvern	US-PA	US	19355	610-669-1000
0001410368-25-032289	0001064642	SPDR SERIES TRUST	811-08839	5493004JVD6CQEEJSS37	One Iron Street		Boston	US-MA	US	02210	617-664-8594
0002071691-25-007652	0001100663	iShares Trust	811-09729	5493000860OXIC4B5K91	400 Howard Street		San Francisco	US-CA	US	94105	800-474-2737
0001378872-25-000392	0001378872	Invesco Exchange-Traded Fund Trust II	811-21977	O540V2L4S174Y60FMD36	3500 Lacey Road	Suite 700	Downers Grove	US-IL	US	60515	800-983-0903
0002071691-25-003731	0001100663	iShares Trust	811-09729	5493000860OXIC4B5K91	400 Howard Street		San Francisco	US-CA	US	94105	800-474-2737
0001410368-25-017888	0001100663	iShares Trust	811-09729	5493000860OXIC4B5K91	400 Howard Street		San Francisco	US-CA	US	94105	800-474-2737
0001193125-25-293300	0000013075	Bond Fund of America	811-02444	F2Q0NH642XF1RP5YCC95	333 South Hope Street	55th Floor	Los Angeles	US-CA	US	90071	9499755000
0001067839-25-000007	0001067839	Invesco QQQ Trust, Series 1	811-08947	549300VY6FEJBCIMET58	3500 Lacey Road	Suite 700	Downers Grove	US-IL	US	60515	800-983-0903
0001193125-25-251553	0000719608	New Economy Fund	811-03735	J154YSXJZPP8R8ZPNM12	333 South Hope Street	55th Floor	Los Angeles	US-CA	US	90071	9499755000
0001193125-25-251558	0000894005	Capital World Growth & Income Fund	811-07338	YW4DFCLW3G60U7B5H052	333 South Hope Street	55th Floor	Los Angeles	US-CA	US	90071-1406	9499755000
0000777535-25-000042	0000777535	College Retirement Equities Fund	811-04415	549300W86TWR1A52Z652	730 Third Avenue		New York	US-NY	US	10017	212-490-9000
0001410368-25-031937	0001168164	SPDR INDEX SHARES FUNDS	811-21145	5493001XGU6MOBRXUU78	One Iron Street		Boston	US-MA	US	02210	617-664-7037
0002071691-25-007650	0001738078	BlackRock Funds V	811-23339	54930077DSFQPJDWM487	100 Bellevue Parkway		Wilmington	US-DE	US	19809	800-441-7762
0002071691-25-007646	0001100663	iShares Trust	811-09729	5493000860OXIC4B5K91	400 Howard Street		San Francisco	US-CA	US	94105	800-474-2737
0001410368-25-031990	0001064641	SELECT SECTOR SPDR TRUST	811-08837	5493008JJKIPMEX3CO91	One Iron Street		Boston	US-MA	US	02210	866-732-8673
0002071691-25-003733	0001100663	iShares Trust	811-09729	5493000860OXIC4B5K91	400 Howard Street		San Francisco	US-CA	US	94105	800-474-2737
0001410368-25-032201	0000915092	Master Investment Portfolio	811-08162	5493004HQXF0DFT60U28	100 Bellevue Parkway		Wilmington	US-DE	US	19809	800-441-7762
0000035402-25-002150	0000880195	Fidelity Aberdeen Street Trust	811-06440	EH5MGE941XHR05KZ4E50	245 Summer Street		Boston	US-MA	US	02210	1-800-FIDELITY
0000752177-25-000262	0000752177	VANGUARD CHESTER FUNDS	811-04098	54930034NOOD3YDKBZ64	100 Vanguard Boulevard		Malvern	US-PA	US	19355	610-669-1000
0000035402-25-002146	0000880195	Fidelity Aberdeen Street Trust	811-06440	EH5MGE941XHR05KZ4E50	245 Summer Street		Boston	US-MA	US	02210	1-800-FIDELITY
0001410368-25-017278	0001454889	SCHWAB STRATEGIC TRUST	811-22311	549300NAZEQOIX80E226	211 MAIN STREET		SAN FRANCISCO	US-CA	US	94105	800-648-5300
0002071691-25-003725	0001100663	iShares Trust	811-09729	5493000860OXIC4B5K91	400 Howard Street		San Francisco	US-CA	US	94105	800-474-2737
0000052848-25-000264	0000052848	VANGUARD WORLD FUND	811-01027	549300MP6BT0L4Q61L10	100 Vanguard Boulevard		Malvern	US-PA	US	19355	610-669-1000
0000752177-25-000257	0000752177	VANGUARD CHESTER FUNDS	811-04098	54930034NOOD3YDKBZ64	100 Vanguard Boulevard		Malvern	US-PA	US	19355	610-669-1000
0000752177-25-000263	0000752177	VANGUARD CHESTER FUNDS	811-04098	54930034NOOD3YDKBZ64	100 Vanguard Boulevard		Malvern	US-PA	US	19355	610-669-1000
0000036405-25-000245	0000036405	VANGUARD INDEX FUNDS	811-02652	549300G6KNDK44WUN559	100 Vanguard Boulevard		Malvern	US-PA	US	19355	610-669-1000
0001410368-25-017274	0001454889	SCHWAB STRATEGIC TRUST	811-22311	549300NAZEQOIX80E226	211 MAIN STREET		SAN FRANCISCO	US-CA	US	94105	800-648-5300
0000035402-25-001373	0000707823	Fidelity Mt. Vernon Street Trust	811-03583	0UZTS2D38E1WD4MK3K98	245 Summer Street		Boston	US-MA	US	02210	1-800-FIDELITY
0000752177-25-000253	0000752177	VANGUARD CHESTER FUNDS	811-04098	54930034NOOD3YDKBZ64	100 Vanguard Boulevard		Malvern	US-PA	US	19355	610-669-1000
0000035402-25-001445	0000035315	Fidelity Salem Street Trust	811-02105	S4W85DGKOEJ24DPRB829	245 Summer Street		Boston	US-MA	US	02210	1-800-FIDELITY
0000035402-25-001477	0001364924	Fidelity Rutland Square Trust II	811-21991	1KZ3JN58GDRI3EZKKG06	245 Summer Street		Boston	US-MA	US	02210	1-800-FIDELITY
0000826473-25-000044	0000826473	VANGUARD FENWAY FUNDS	811-05445	549300HR7W3XB5UOJ590	100 Vanguard Boulevard		Malvern	US-PA	US	19355	610-669-1000
0000752177-25-000256	0000752177	VANGUARD CHESTER FUNDS	811-04098	54930034NOOD3YDKBZ64	100 Vanguard Boulevard		Malvern	US-PA	US	19355	610-669-1000
0000794105-25-000137	0000794105	VANGUARD BOND INDEX FUNDS	811-04681	549300INE5BF80OGAZ51	100 Vanguard Boulevard		Malvern	US-PA	US	19355	610-669-1000
0000752177-25-000259	0000752177	VANGUARD CHESTER FUNDS	811-04098	54930034NOOD3YDKBZ64	100 Vanguard Boulevard		Malvern	US-PA	US	19355	610-669-1000
0000923202-25-000082	0000923202	VANGUARD TAX-MANAGED FUNDS	811-07175	549300PTTIGTMUA02X28	100 Vanguard Boulevard		Malvern	US-PA	US	19355	610-669-1000
0000836906-25-000263	0000836906	VANGUARD MALVERN FUNDS	811-05628	549300EW16IGZDA38J20	100 Vanguard Boulevard		Malvern	US-PA	US	19355	610-669-1000
0001004726-25-002038	0001100663	iShares Trust	811-09729	5493000860OXIC4B5K91	400 Howard Street		San Francisco	US-CA	US	94105	800-474-2737
0000794105-25-000138	0000794105	VANGUARD BOND INDEX FUNDS	811-04681	549300INE5BF80OGAZ51	100 Vanguard Boulevard		Malvern	US-PA	US	19355	610-669-1000
0001193125-25-295368	0001735964	Cliffwater Corporate Lending Fund	811-23333	549300H513RTF4I5T758	235 WEST GALENA STREET		MILWAUKEE	US-WI	US	53212	41429920000
0000035402-25-001486	0001364924	Fidelity Rutland Square Trust II	811-21991	1KZ3JN58GDRI3EZKKG06	245 Summer Street		Boston	US-MA	US	02210	1-800-FIDELITY
0001410368-25-017267	0001454889	SCHWAB STRATEGIC TRUST	811-22311	549300NAZEQOIX80E226	211 MAIN STREET		SAN FRANCISCO	US-CA	US	94105	800-648-5300
0001193125-25-251548	0000004405	AMCAP Fund	811-01435	OREPVS5S2E6Z93JN5V46	333 South Hope Street	55th Floor	Los Angeles	US-CA	US	90071	9499755000
0001193125-25-251567	0000044201	Growth Fund of America	811-00862	VOJHP0RJPD2FRCAXQJ44	6455 Irvine Center Drive		Irvine	US-CA	US	92618-4518	9499755000
0000035402-25-002155	0000880195	Fidelity Aberdeen Street Trust	811-06440	EH5MGE941XHR05KZ4E50	245 Summer Street		Boston	US-MA	US	02210	1-800-FIDELITY
0001193125-25-252339	0000773757	Columbia Funds Series Trust I	811-04367	549300W5GIE6ZOZOTD82	290 Congress Street		Boston	US-MA	US	02110	800-345-6611
0000940400-25-010616	0001100663	iShares Trust	811-09729	5493000860OXIC4B5K91	400 Howard Street		San Francisco	US-CA	US	94105	800-474-2737
0000940400-25-010642	0001100663	iShares Trust	811-09729	5493000860OXIC4B5K91	400 Howard Street		San Francisco	US-CA	US	94105	800-474-2737
0000940400-25-010634	0000276463	BlackRock Bond Fund, Inc.	811-02857	54930030AVOSLSPZTH36	100 Bellevue Parkway		Wilmington	US-DE	US	19809	800-441-7762
0000105563-25-000099	0000105563	VANGUARD WELLINGTON FUND	811-00121	549300X1E8M3H6XRMS84	100 Vanguard Boulevard		Malvern	US-PA	US	19355	610-669-1000
0001193125-25-293282	0000039473	American Funds Fundamental Investors	811-00032	RCVUC3QKUPM8R6R24U95	6455 Irvine Center Drive		Irvine	US-CA	US	92618-4518	9499755000
0000035402-25-002272	0000831016	Variable Insurance Products Fund II	811-05511	D8TUF5IXYLDDLCD6AV58	245 Summer Street		Boston	US-MA	US	02210	1-800-FIDELITY
0001099263-25-003622	0000858581	T. ROWE PRICE INDEX TRUST, INC.	811-05986	549300DT5TB0WREU3681	1307 Point Street		Baltimore	US-MD	US	21231	410-345-2000
0001099263-25-001808	0001177017	T. ROWE PRICE RETIREMENT FUNDS, INC.	811-21149	549300NPW1X3GQMKCN90	1307 Point Street		Baltimore	US-MD	US	21231	410-345-2000
0000035402-25-001335	0000722574	Fidelity Advisor Series I	811-03785	C7J4FOV6ELAVE39B7M82	245 Summer Street		Boston	US-MA	US	02210	1-800-FIDELITY
0001193125-25-293324	0000858744	SMALLCAP World Fund Inc	811-05888	QUU75Y6VVBVQ4LBGTL77	6455 Irvine Center Drive		Irvine	US-CA	US	92618	9499755000
0000940400-25-010641	0001100663	iShares Trust	811-09729	5493000860OXIC4B5K91	400 Howard Street		San Francisco	US-CA	US	94105	800-474-2737
0000035402-25-001381	0000819118	Fidelity Concord Street Trust	811-05251	EEX0N4ID1C226M44VF22	245 Summer Street		Boston	US-MA	US	02210	1-800-FIDELITY
0000035402-25-001485	0001364924	Fidelity Rutland Square Trust II	811-21991	1KZ3JN58GDRI3EZKKG06	245 Summer Street		Boston	US-MA	US	02210	1-800-FIDELITY
0001410368-25-028395	0001137360	VanEck ETF Trust	811-10325	549300ZLFKNTXC51ZN76	666 THIRD AVENUE, 9TH FLOOR		NEW YORK	US-NY	US	10017	212-293-2000
0001193125-25-293319	0000719603	EUPAC Fund	811-03734	77WINTZWMLWP62JWI085	333 South Hope Street	55th Floor	Los Angeles	US-CA	US	90071-1406	9499755000
0002071691-25-006423	0000038721	Franklin Custodian Funds	811-00537	549300PYEMTLTOE2MK86	One Franklin Parkway		San Mateo	US-CA	US	94403-1906	650-312-2000
0001003715-25-001305	0001724826	SIX CIRCLES TRUST	811-23325	549300NG19QZK8S0N704	383 Madison Ave	NULL	NY	US-NY	US	10179	212-464-2070
0001410368-25-017836	0001100663	iShares Trust	811-09729	5493000860OXIC4B5K91	400 Howard Street		San Francisco	US-CA	US	94105	800-474-2737
0001410368-25-017902	0001100663	iShares Trust	811-09729	5493000860OXIC4B5K91	400 Howard Street		San Francisco	US-CA	US	94105	800-474-2737
0000035402-25-001447	0000035315	Fidelity Salem Street Trust	811-02105	S4W85DGKOEJ24DPRB829	245 Summer Street		Boston	US-MA	US	02210	1-800-FIDELITY
0000035402-25-001478	0001364924	Fidelity Rutland Square Trust II	811-21991	1KZ3JN58GDRI3EZKKG06	245 Summer Street		Boston	US-MA	US	02210	1-800-FIDELITY
0000794105-25-000143	0000794105	VANGUARD BOND INDEX FUNDS	811-04681	549300INE5BF80OGAZ51	100 Vanguard Boulevard		Malvern	US-PA	US	19355	610-669-1000
0001003715-25-001332	0001567101	Bridge Builder Trust	811-22811	549300MZGMJ1KD5SOK80	12555 Manchester Road	NULL	St. Louis	US-MO	US	63131	314-515-2000
0001003715-25-001337	0001567101	Bridge Builder Trust	811-22811	549300MZGMJ1KD5SOK80	12555 Manchester Road	NULL	St. Louis	US-MO	US	63131	314-515-2000
0000894189-25-015336	0001282693	Baird Funds Inc	811-09997	5493007JR2NWYBC7PO06	777 East Wisconsin Avenue		Milwaukee	US-WI	US	53202	4147653614
0001193125-25-293563	0000729528	AMERICAN FUNDS INSURANCE SERIES	811-03857	5493006ZFTN01BKM5294	333 South Hope Street	55th Floor	Los Angeles	US-CA	US	90071	9499755000
0001004726-25-002059	0001100663	iShares Trust	811-09729	5493000860OXIC4B5K91	400 Howard Street		San Francisco	US-CA	US	94105	800-474-2737
0000035402-25-002118	0000024238	Fidelity Contrafund	811-01400	S5Y3O6VQ0TG5C3WLJP73	245 Summer Street		Boston	US-MA	US	02210	1-800-FIDELITY
0000035402-25-002136	0000024238	Fidelity Contrafund	811-01400	S5Y3O6VQ0TG5C3WLJP73	245 Summer Street		Boston	US-MA	US	02210	1-800-FIDELITY
0001410368-25-022019	0001028621	TCW Metropolitan West Funds	811-07989	549300KGDNJW6FXNDC82	METROPOLITAN WEST ASSET MANAGEMENT	865 S. FIGUEROA STREET, SUITE 2100	LOS ANGELES	US-CA	US	90017	800-241-4671
0000777535-25-000037	0000777535	College Retirement Equities Fund	811-04415	549300W86TWR1A52Z652	730 Third Avenue		New York	US-NY	US	10017	212-490-9000
0000940400-25-010613	0001100663	iShares Trust	811-09729	5493000860OXIC4B5K91	400 Howard Street		San Francisco	US-CA	US	94105	800-474-2737
0001003715-25-001032	0000866256	Parnassus Funds II	811-06673	25490076SJ8OS37PWC23	1 Market Street	Suite 1600	San Francisco	US-CA	US	94105	415-778-0200
0001410368-25-017881	0000930667	iShares, Inc.	811-09102	549300MGJZCNMJLBAJ67	400 HOWARD STREET		SAN FRANCISCO	US-CA	US	94105	800-474-2737
0001193125-25-293305	0000004568	American Balanced Fund	811-00066	L8DP8S00A6XHCCDH3332	6455 Irvine Center Drive		Irvine	US-CA	US	92618	9499755000
0001193125-25-293318	0000071516	New Perspective Fund	811-02333	MVJJ5XRND2TZ5KBTXC77	333 South Hope Street	55th Floor	Los Angeles	US-CA	US	90071-1406	9499755000
0001193125-25-293287	0001655146	American Funds Strategic Bond Fund	811-23101	549300WL12I3ETOMST62	6455 Irvine Center Drive		Irvine	US-CA	US	92618	9499755000
0002071691-25-006469	0000805650	Franklin Managed Trust	811-04894	549300ABVE9PHQM3RW65	One Franklin Parkway		San Mateo	US-CA	US	94403-1906	650-312-2000
0002071691-25-006501	0000038721	Franklin Custodian Funds	811-00537	549300PYEMTLTOE2MK86	One Franklin Parkway		San Mateo	US-CA	US	94403-1906	650-312-2000
0000105544-25-000027	0000105544	VANGUARD WELLESLEY INCOME FUND	811-01766	549300OJL7R1C308TV02	100 Vanguard Boulevard		Malvern	US-PA	US	19355	610-669-1000
0000036405-25-000239	0000036405	VANGUARD INDEX FUNDS	811-02652	549300G6KNDK44WUN559	100 Vanguard Boulevard		Malvern	US-PA	US	19355	610-669-1000
0000036405-25-000243	0000036405	VANGUARD INDEX FUNDS	811-02652	549300G6KNDK44WUN559	100 Vanguard Boulevard		Malvern	US-PA	US	19355	610-669-1000
0000036405-25-000240	0000036405	VANGUARD INDEX FUNDS	811-02652	549300G6KNDK44WUN559	100 Vanguard Boulevard		Malvern	US-PA	US	19355	610-669-1000
0000052848-25-000256	0000052848	VANGUARD WORLD FUND	811-01027	549300MP6BT0L4Q61L10	100 Vanguard Boulevard		Malvern	US-PA	US	19355	610-669-1000
0002071691-25-003738	0001100663	iShares Trust	811-09729	5493000860OXIC4B5K91	400 Howard Street		San Francisco	US-CA	US	94105	800-474-2737
0001099263-25-003630	0000902259	T. ROWE PRICE BLUE CHIP GROWTH FUND, INC.	811-07059	549300AFWM3W7E3ROZ97	1307 Point Street		Baltimore	US-MD	US	21231	410-345-2000
0001099263-25-003601	0000080257	T. ROWE PRICE GROWTH STOCK FUND, INC.	811-00579	549300T93P415WTRW320	1307 Point Street		Baltimore	US-MD	US	21231	410-345-2000
0001193125-25-293559	0000729528	AMERICAN FUNDS INSURANCE SERIES	811-03857	5493006ZFTN01BKM5294	333 South Hope Street	55th Floor	Los Angeles	US-CA	US	90071	9499755000
0001193125-25-293564	0000729528	AMERICAN FUNDS INSURANCE SERIES	811-03857	5493006ZFTN01BKM5294	333 South Hope Street	55th Floor	Los Angeles	US-CA	US	90071	9499755000
0000036405-25-000237	0000036405	VANGUARD INDEX FUNDS	811-02652	549300G6KNDK44WUN559	100 Vanguard Boulevard		Malvern	US-PA	US	19355	610-669-1000
0000752177-25-000264	0000752177	VANGUARD CHESTER FUNDS	811-04098	54930034NOOD3YDKBZ64	100 Vanguard Boulevard		Malvern	US-PA	US	19355	610-669-1000
0001099263-25-003640	0000927845	T. ROWE PRICE VALUE FUND, INC.	811-07209	549300EW4YHV7OVARC82	1307 Point Street		Baltimore	US-MD	US	21231	410-345-2000
0000035402-25-001403	0000081205	Fidelity Puritan Trust	811-00649	WDA1I420M36T9HTVU696	245 Summer Street		Boston	US-MA	US	02210	1-800-FIDELITY
0000035402-25-002187	0000880195	Fidelity Aberdeen Street Trust	811-06440	EH5MGE941XHR05KZ4E50	245 Summer Street		Boston	US-MA	US	02210	1-800-FIDELITY
0000862084-25-000080	0000862084	VANGUARD INSTITUTIONAL INDEX FUNDS	811-06093	549300HU31ENFT74XN04	100 Vanguard Boulevard		Malvern	US-PA	US	19355	610-669-1000
0000036405-25-000238	0000036405	VANGUARD INDEX FUNDS	811-02652	549300G6KNDK44WUN559	100 Vanguard Boulevard		Malvern	US-PA	US	19355	610-669-1000
0000035402-25-001386	0000819118	Fidelity Concord Street Trust	811-05251	EEX0N4ID1C226M44VF22	245 Summer Street		Boston	US-MA	US	02210	1-800-FIDELITY
0000035402-25-001416	0000035315	Fidelity Salem Street Trust	811-02105	S4W85DGKOEJ24DPRB829	245 Summer Street		Boston	US-MA	US	02210	1-800-FIDELITY
0000035402-25-001441	0000819118	Fidelity Concord Street Trust	811-05251	EEX0N4ID1C226M44VF22	245 Summer Street		Boston	US-MA	US	02210	1-800-FIDELITY
0000035402-25-001440	0000819118	Fidelity Concord Street Trust	811-05251	EEX0N4ID1C226M44VF22	245 Summer Street		Boston	US-MA	US	02210	1-800-FIDELITY
0002071691-25-004164	0000763852	JPMorgan Trust II	811-04236	549300IMXLYKELY96B40	277 Park Avenue		New York	US-NY	US	10172	800-480-4111
0001410368-25-032041	0001064642	SPDR SERIES TRUST	811-08839	5493004JVD6CQEEJSS37	One Iron Street		Boston	US-MA	US	02210	617-664-8594
0001193125-25-293283	0000051931	Investment Co of America	811-00116	ESMT10R1J5REBJX2N406	333 South Hope Street	55th Floor	Los Angeles	US-CA	US	90071-1406	9499755000
0000752177-25-000254	0000752177	VANGUARD CHESTER FUNDS	811-04098	54930034NOOD3YDKBZ64	100 Vanguard Boulevard		Malvern	US-PA	US	19355	610-669-1000
0000036405-25-000235	0000036405	VANGUARD INDEX FUNDS	811-02652	549300G6KNDK44WUN559	100 Vanguard Boulevard		Malvern	US-PA	US	19355	610-669-1000
0000036405-25-000242	0000036405	VANGUARD INDEX FUNDS	811-02652	549300G6KNDK44WUN559	100 Vanguard Boulevard		Malvern	US-PA	US	19355	610-669-1000
0000794105-25-000140	0000794105	VANGUARD BOND INDEX FUNDS	811-04681	549300INE5BF80OGAZ51	100 Vanguard Boulevard		Malvern	US-PA	US	19355	610-669-1000
0000036405-25-000244	0000036405	VANGUARD INDEX FUNDS	811-02652	549300G6KNDK44WUN559	100 Vanguard Boulevard		Malvern	US-PA	US	19355	610-669-1000
0000752177-25-000265	0000752177	VANGUARD CHESTER FUNDS	811-04098	54930034NOOD3YDKBZ64	100 Vanguard Boulevard		Malvern	US-PA	US	19355	610-669-1000
0001410368-25-017036	0000783740	MFS SERIES TRUST X	811-04492	5493001MUVNRNUPJY164	111 HUNTINGTON AVENUE		BOSTON	US-MA	US	02199	617-954-5000
0001193125-25-296899	0001480207	DoubleLine Funds Trust	811-22378	549300MUFFXFRMY0RH66	2002 North Tampa Street	Suite 200	Tampa	US-FL	US	33602	813-791-7333
0001410368-25-032147	0000893818	BlackRock Funds III	811-07332	5493008LW2651I1QB503	100 Bellevue Parkway		Wilmington	US-DE	US	19809	800-441-7762
0000036405-25-000236	0000036405	VANGUARD INDEX FUNDS	811-02652	549300G6KNDK44WUN559	100 Vanguard Boulevard		Malvern	US-PA	US	19355	610-669-1000
0001004726-25-002043	0001100663	iShares Trust	811-09729	5493000860OXIC4B5K91	400 Howard Street		San Francisco	US-CA	US	94105	800-474-2737
0000862084-25-000081	0000862084	VANGUARD INSTITUTIONAL INDEX FUNDS	811-06093	549300HU31ENFT74XN04	100 Vanguard Boulevard		Malvern	US-PA	US	19355	610-669-1000
0000889519-25-000042	0000889519	VANGUARD VALLEY FORGE FUNDS	811-58431	549300FUTH8HHBEZCJ03	100 Vanguard Boulevard		Malvern	US-PA	US	19355	610-669-1000
0000836906-25-000266	0000836906	VANGUARD MALVERN FUNDS	811-05628	549300EW16IGZDA38J20	100 Vanguard Boulevard		Malvern	US-PA	US	19355	610-669-1000
0000052848-25-000265	0000052848	VANGUARD WORLD FUND	811-01027	549300MP6BT0L4Q61L10	100 Vanguard Boulevard		Malvern	US-PA	US	19355	610-669-1000
0001021882-25-000204	0001021882	VANGUARD SCOTTSDALE FUNDS	811-07803	549300Y88GQ3VLJIBX57	100 Vanguard Boulevard		Malvern	US-PA	US	19355	610-669-1000
0001021882-25-000198	0001021882	VANGUARD SCOTTSDALE FUNDS	811-07803	549300Y88GQ3VLJIBX57	100 Vanguard Boulevard		Malvern	US-PA	US	19355	610-669-1000
0001099263-25-003615	0000793347	T. ROWE PRICE CAPITAL APPRECIATION FUND, INC.	811-04519	549300KKOU6DV2L9SH58	1307 Point Street		Baltimore	US-MD	US	21231	410-345-2000
0002071691-25-007634	0001100663	iShares Trust	811-09729	5493000860OXIC4B5K91	400 Howard Street		San Francisco	US-CA	US	94105	800-474-2737
0000035402-25-002202	0000061397	Fidelity Magellan Fund	811-01193	XCODUEQ0D4XIOT1T8X44	245 Summer Street		Boston	US-MA	US	02210	1-800-FIDELITY
0000036405-25-000241	0000036405	VANGUARD INDEX FUNDS	811-02652	549300G6KNDK44WUN559	100 Vanguard Boulevard		Malvern	US-PA	US	19355	610-669-1000
0000794105-25-000139	0000794105	VANGUARD BOND INDEX FUNDS	811-04681	549300INE5BF80OGAZ51	100 Vanguard Boulevard		Malvern	US-PA	US	19355	610-669-1000
0000894189-25-015338	0001282693	Baird Funds Inc	811-09997	5493007JR2NWYBC7PO06	777 East Wisconsin Avenue		Milwaukee	US-WI	US	53202	4147653614
0001410368-25-031954	0001064641	SELECT SECTOR SPDR TRUST	811-08837	5493008JJKIPMEX3CO91	One Iron Street		Boston	US-MA	US	02210	866-732-8673
0000777535-25-000040	0000777535	College Retirement Equities Fund	811-04415	549300W86TWR1A52Z652	730 Third Avenue		New York	US-NY	US	10017	212-490-9000
0001410368-25-032026	0001064642	SPDR SERIES TRUST	811-08839	5493004JVD6CQEEJSS37	One Iron Street		Boston	US-MA	US	02210	617-664-8594
0001410368-25-031962	0000884394	SPDR S&P 500 ETF TRUST	811-06125	549300NZAMSJ8FXPQQ63	11 WALL STREET	PDR SERVICES LLC C/O NYSE EURONEXT	New York	US-NY	US	10005	212-656-4440
0000052848-25-000312	0000052848	VANGUARD WORLD FUND	811-01027	549300MP6BT0L4Q61L10	100 Vanguard Boulevard		Malvern	US-PA	US	19355	610-669-1000
0001193125-25-299121	0000029440	Dodge & Cox Funds	811-00173	549300R3H2V5UI5MR803	555 California Street	40th Floor	San Francisco	US-CA	US	94104	415-981-1710
0000752177-25-000261	0000752177	VANGUARD CHESTER FUNDS	811-04098	54930034NOOD3YDKBZ64	100 Vanguard Boulevard		Malvern	US-PA	US	19355	610-669-1000
0000035402-25-002218	0001401097	Fidelity Central Investment Portfolios II LLC	811-22083	0VPAEPVECBYQ0ULYZJ60	245 Summer Street		Boston	US-MA	US	02210	1-800-FIDELITY
0000035402-25-001446	0000751199	Fidelity Income Fund	811-04085	D66RCKM57LC8ELZCAY58	245 Summer Street		Boston	US-MA	US	02210	1-800-FIDELITY
0001410368-25-017270	0001454889	SCHWAB STRATEGIC TRUST	811-22311	549300NAZEQOIX80E226	211 MAIN STREET		SAN FRANCISCO	US-CA	US	94105	800-648-5300
0001410368-25-017275	0001454889	SCHWAB STRATEGIC TRUST	811-22311	549300NAZEQOIX80E226	211 MAIN STREET		SAN FRANCISCO	US-CA	US	94105	800-648-5300
0001410368-25-017052	0000798244	MFS SERIES TRUST I	811-04777	549300QRB5FQ35HH3533	111 HUNTINGTON AVENUE		BOSTON	US-MA	US	02199	617-954-5000
0001532203-25-000068	0001532203	VANGUARD CHARLOTTE FUNDS	811-22619	549300Z9BHDBGHMJLU94	100 Vanguard Boulevard		Malvern	US-PA	US	19355	610-669-1000
0001193125-25-334090	0001380175	American Funds Target Date Retirement Series	811-21981	549300LHAMB8X3UKXY85	333 South Hope Street	55th Floor	Los Angeles	US-CA	US	90071	9499755000
0001193125-25-334094	0001380175	American Funds Target Date Retirement Series	811-21981	549300LHAMB8X3UKXY85	333 South Hope Street	55th Floor	Los Angeles	US-CA	US	90071	9499755000
0001193125-25-334093	0001380175	American Funds Target Date Retirement Series	811-21981	549300LHAMB8X3UKXY85	333 South Hope Street	55th Floor	Los Angeles	US-CA	US	90071	9499755000
0001410368-25-042035	0000889508	AB LARGE CAP GROWTH FUND INC	811-06730	549300KG2R9A3RW3L081	ALLIANCEBERNSTEIN LP	66 Hudson Boulevard East	NEW YORK	US-NY	US	10001	212-969-1000
0001410368-25-042012	0000904333	SCHWAB CAPITAL TRUST	811-07704	549300PEK1H7N1HLC797	211 MAIN STREET		SAN FRANCISCO	US-CA	US	94105	800-648-5300
0001193125-25-334199	0000104865	Washington Mutual Investors Fund	811-00604	GMJOUC23TOBOTKRA5C67	6455 Irvine Center Drive		Irvine	US-CA	US	92618-4518	9499755000
0001193125-25-334095	0001380175	American Funds Target Date Retirement Series	811-21981	549300LHAMB8X3UKXY85	333 South Hope Street	55th Floor	Los Angeles	US-CA	US	90071	9499755000
0001193125-25-334203	0000811968	Capital Income Builder	811-05085	HB3628X2G8I5EW1FVP36	333 South Hope Street	55th Floor	Los Angeles	US-CA	US	90071	9499755000
0001410368-25-043395	0001100663	iShares Trust	811-09729	5493000860OXIC4B5K91	400 Howard Street		San Francisco	US-CA	US	94105	800-474-2737
0001410368-25-043505	0001100663	iShares Trust	811-09729	5493000860OXIC4B5K91	400 Howard Street		San Francisco	US-CA	US	94105	800-474-2737
0001099263-25-004485	0000810893	PIMCO Funds	811-05028	5493003B5Y5GR0Y25Y76	650 Newport Center Drive		Newport Beach	US-CA	US	92660	(888) 877-4626
0002071691-25-007832	0000867969	MFS Series Trust XVII	811-06174	UFVBYVCTWR03WBNW0U67	111 Huntington Avenue		Boston	US-MA	US	02199	617-954-5000
0001084380-25-000525	0001084380	TIAA-CREF Funds	811-09301	549300L8R42TEBN5NG46	730 Third Avenue		New York	US-NY	US	10017	800-842-2733
0001410368-25-032903	0000060365	LORD ABBETT BOND DEBENTURE FUND INC	811-02145	W528K4KWQL50R13TDZ14	30 HUDSON STREET		JERSEY CITY	US-NJ	US	07302	201-827-2000
0000734383-25-000143	0000734383	VANGUARD SPECIALIZED FUNDS	811-03916	549300OM0CLBHZ9MZW59	100 Vanguard Boulevard		Malvern	US-PA	US	19355	610-669-1000
0000107606-25-000043	0000107606	VANGUARD WINDSOR FUNDS	811-00834	5493006MMNJGHJDZOD60	100 Vanguard Boulevard		Malvern	US-PA	US	19355	610-669-1000
0002071691-25-007840	0000935015	Artisan Partners Funds Inc.	811-08932	549300VBCRY84OJ96193	875 E Wisconsin Ave		Milwaukee	US-WI	US	53202	414-390-6100
0000910472-25-005072	0001355064	MUTUAL FUND SERIES TRUST	811-21872	5493002ZGLQMLR4QMA96	C/O GEMINI FUND SERVICES LLC	4221 North 203rd Street, Suite 100	ELKHORN	US-NE	US	68022	631-470-2600
0000734383-25-000149	0000734383	VANGUARD SPECIALIZED FUNDS	811-03916	549300OM0CLBHZ9MZW59	100 Vanguard Boulevard		Malvern	US-PA	US	19355	610-669-1000
0001193125-25-301782	0000277751	JANUS INVESTMENT FUND	811-01879	W6UYDZFUOFJ4HQQ32382	151 Detroit Street		Denver	US-CO	US	80206	303-333-3863
0001410368-25-040419	0000355437	DFA INVESTMENT DIMENSIONS GROUP INC	811-03258	549300XGRTBJCE41BD26	6300 BEE CAVE ROAD	BUILDING ONE	AUSTIN	US-TX	US	78746	512-306-7400
0001410368-25-040425	0000355437	DFA INVESTMENT DIMENSIONS GROUP INC	811-03258	549300XGRTBJCE41BD26	6300 BEE CAVE ROAD	BUILDING ONE	AUSTIN	US-TX	US	78746	512-306-7400
0001410368-25-040424	0000355437	DFA INVESTMENT DIMENSIONS GROUP INC	811-03258	549300XGRTBJCE41BD26	6300 BEE CAVE ROAD	BUILDING ONE	AUSTIN	US-TX	US	78746	512-306-7400
0001410368-25-040430	0000355437	DFA INVESTMENT DIMENSIONS GROUP INC	811-03258	549300XGRTBJCE41BD26	6300 BEE CAVE ROAD	BUILDING ONE	AUSTIN	US-TX	US	78746	512-306-7400
0000035402-25-003013	0000035315	Fidelity Salem Street Trust	811-02105	S4W85DGKOEJ24DPRB829	245 Summer Street		Boston	US-MA	US	02210	1-800-FIDELITY
0001193125-25-334091	0001380175	American Funds Target Date Retirement Series	811-21981	549300LHAMB8X3UKXY85	333 South Hope Street	55th Floor	Los Angeles	US-CA	US	90071	9499755000
0001410368-25-039936	0000793769	HARBOR FUNDS	811-04676	549300YJH4HL5M6WFP75	111 SOUTH WACKER DRIVE	34TH FLOOR	CHICAGO	US-IL	US	60606	312-443-4400
0000035402-25-003052	0000035315	Fidelity Salem Street Trust	811-02105	S4W85DGKOEJ24DPRB829	245 Summer Street		Boston	US-MA	US	02210	1-800-FIDELITY
0000225997-25-000214	0000225997	VANGUARD MUNICIPAL BOND FUNDS	811-02687	5493005YO1ELB2VD2X90	100 Vanguard Boulevard		Malvern	US-PA	US	19355	610-669-1000
0000035402-25-002972	0000035315	Fidelity Salem Street Trust	811-02105	S4W85DGKOEJ24DPRB829	245 Summer Street		Boston	US-MA	US	02210	1-800-FIDELITY
0002071691-25-010101	0000906352	First Eagle Funds	811-07762	549300FE2F4XF7FZN136	1345 Avenue of the Americas		New York	US-NY	US	10105	800-334-2143
0000857489-25-000152	0000857489	VANGUARD INTERNATIONAL EQUITY INDEX FUNDS	811-05972	549300UR5XWDVDO7NP96	100 Vanguard Boulevard		Malvern	US-PA	US	19355	610-669-1000
0000734383-25-000146	0000734383	VANGUARD SPECIALIZED FUNDS	811-03916	549300OM0CLBHZ9MZW59	100 Vanguard Boulevard		Malvern	US-PA	US	19355	610-669-1000
0000857489-25-000149	0000857489	VANGUARD INTERNATIONAL EQUITY INDEX FUNDS	811-05972	549300UR5XWDVDO7NP96	100 Vanguard Boulevard		Malvern	US-PA	US	19355	610-669-1000
0001193125-25-334200	0001073330	New World Fund Inc	811-09105	M3AFSEI8ZW2JEI726E06	333 South Hope Street	55th Floor	Los Angeles	US-CA	US	90071	9499755000
0001410368-25-043387	0001100663	iShares Trust	811-09729	5493000860OXIC4B5K91	400 Howard Street		San Francisco	US-CA	US	94105	800-474-2737
0001099263-25-004447	0000810893	PIMCO Funds	811-05028	5493003B5Y5GR0Y25Y76	650 Newport Center Drive		Newport Beach	US-CA	US	92660	(888) 877-4626
0002071691-25-007797	0000763852	JPMorgan Trust II	811-04236	549300IMXLYKELY96B40	277 Park Avenue		New York	US-NY	US	10172	800-480-4111
0001084380-25-000533	0001084380	TIAA-CREF Funds	811-09301	549300L8R42TEBN5NG46	730 Third Avenue		New York	US-NY	US	10017	800-842-2733
0002071691-25-007782	0001217286	JPMorgan Trust I	811-21295	549300DM5WZMCZZ70R78	277 Park Avenue		New York	US-NY	US	10172	800-480-4111
0001410368-25-043382	0001100663	iShares Trust	811-09729	5493000860OXIC4B5K91	400 Howard Street		San Francisco	US-CA	US	94105	800-474-2737
0000225997-25-000213	0000225997	VANGUARD MUNICIPAL BOND FUNDS	811-02687	5493005YO1ELB2VD2X90	100 Vanguard Boulevard		Malvern	US-PA	US	19355	610-669-1000
0001209466-25-000763	0001209466	Invesco Exchange-Traded Fund Trust	811-21265	QPT4TMG79RF3UWNU0R52	3500 Lacey Road	Suite 700	Downers Grove	US-IL	US	60515	800-983-0903
0001099263-25-004413	0000810893	PIMCO Funds	811-05028	5493003B5Y5GR0Y25Y76	650 Newport Center Drive		Newport Beach	US-CA	US	92660	(888) 877-4626
0001099263-25-004476	0000810893	PIMCO Funds	811-05028	5493003B5Y5GR0Y25Y76	650 Newport Center Drive		Newport Beach	US-CA	US	92660	(888) 877-4626
0001099263-25-004484	0000810893	PIMCO Funds	811-05028	5493003B5Y5GR0Y25Y76	650 Newport Center Drive		Newport Beach	US-CA	US	92660	(888) 877-4626
0002071691-25-007774	0001485894	J.P. Morgan Exchange-Traded Fund Trust	811-22903	5493001E1K1DVWDV2464	277 Park Avenue		New York	US-NY	US	10172	844-457-6383
0001410368-25-041185	0001041130	SPDR DOW JONES INDUSTRIAL AVERAGE ETF TRUST	811-09170	54930039F2SG3UG2OZ18	PDR SERVICES LLC C/O NYSE EURONEXT	11 WALL STREET	New York	US-NY	US	10005	212-656-4440
0001410368-25-041987	0000904333	SCHWAB CAPITAL TRUST	811-07704	549300PEK1H7N1HLC797	211 MAIN STREET		SAN FRANCISCO	US-CA	US	94105	800-648-5300
0002071691-25-009312	0000216934	Putnam Large Cap Value Fund	811-02742	CZH3VR3I6CWL6QA8GG38	100 Federal Street		Boston	US-MA	US	02110	617-292-1000
0001193125-25-334932	0000100334	American Century Mutual Funds, Inc.	811-00816	549300DMFK0SMVLOE939	4500 Main St		Kansas City	US-MO	US	64111	816-531-5575
0001410368-25-043401	0000844779	BlackRock Funds	811-05742	549300OZUEVJZHOBFP42	100 Bellevue Parkway		Wilmington	US-DE	US	19809	800-441-7762
0001193125-25-334098	0001380175	American Funds Target Date Retirement Series	811-21981	549300LHAMB8X3UKXY85	333 South Hope Street	55th Floor	Los Angeles	US-CA	US	90071	9499755000
0001410368-25-040405	0000896162	DFA INVESTMENT TRUST CO	811-07436	549300FSKWEXKF6YBM56	6300 BEE CAVE ROAD	BUILDING ONE	AUSTIN	US-TX	US	78746	512-306-7400
0000035402-25-002966	0000754510	Fidelity Securities Fund	811-04118	LIUMB3NDWOFJPXVROE85	245 Summer Street		Boston	US-MA	US	02210	1-800-FIDELITY
0002071691-25-009466	0001100663	iShares Trust	811-09729	5493000860OXIC4B5K91	400 Howard Street		San Francisco	US-CA	US	94105	800-474-2737
0002071691-25-007738	0001485894	J.P. Morgan Exchange-Traded Fund Trust	811-22903	5493001E1K1DVWDV2464	277 Park Avenue		New York	US-NY	US	10172	844-457-6383
0002071691-25-007741	0000763852	JPMorgan Trust II	811-04236	549300IMXLYKELY96B40	277 Park Avenue		New York	US-NY	US	10172	800-480-4111
0000035402-25-002946	0000035315	Fidelity Salem Street Trust	811-02105	S4W85DGKOEJ24DPRB829	245 Summer Street		Boston	US-MA	US	02210	1-800-FIDELITY
0001193125-25-334202	0000005506	American Mutual Fund	811-00572	QURFUUOMKQ61ME3JJZ05	333 South Hope Street	55th Floor	Los Angeles	US-CA	US	90071	9499755000
0001004726-25-003417	0001816125	Dimensional ETF Trust	811-23580	549300TQ0DPO13B72F34	6300 Bee Cave Road	Building One	Austin	US-TX	US	78746	512-306-7400
0001193125-25-334214	0000050013	Income Fund of America	811-01880	TOHHXZTHT2ER8SHT3X45	6455 Irvine Center Drive		Irvine	US-CA	US	92618-4518	9499755000
0001410368-25-043408	0001761055	BlackRock ETF Trust	811-23402	5493007WBHAKV9JVS642	100 BELLEVUE PARKWAY		WILMINGTON	US-DE	US	19809	800-441-7762
0001099263-25-004419	0000810893	PIMCO Funds	811-05028	5493003B5Y5GR0Y25Y76	650 Newport Center Drive		Newport Beach	US-CA	US	92660	(888) 877-4626
0001099263-25-004472	0000810893	PIMCO Funds	811-05028	5493003B5Y5GR0Y25Y76	650 Newport Center Drive		Newport Beach	US-CA	US	92660	(888) 877-4626
0001410368-25-038298	0001557156	Goldman Sachs Trust II	811-22781	54930076LXUZ0NBAPG06	200 WEST STREET	15TH FLOOR	NEW YORK	US-NY	US	10282	212-902-1000
0000106444-25-000235	0000106444	VANGUARD FIXED INCOME SECURITIES FUNDS	811-02368	549300F3N7VQKU6I4K64	100 Vanguard Boulevard		Malvern	US-PA	US	19355	610-669-1000
0000857489-25-000147	0000857489	VANGUARD INTERNATIONAL EQUITY INDEX FUNDS	811-05972	549300UR5XWDVDO7NP96	100 Vanguard Boulevard		Malvern	US-PA	US	19355	610-669-1000
0001532203-25-000066	0001532203	VANGUARD CHARLOTTE FUNDS	811-22619	549300Z9BHDBGHMJLU94	100 Vanguard Boulevard		Malvern	US-PA	US	19355	610-669-1000
0000857489-25-000151	0000857489	VANGUARD INTERNATIONAL EQUITY INDEX FUNDS	811-05972	549300UR5XWDVDO7NP96	100 Vanguard Boulevard		Malvern	US-PA	US	19355	610-669-1000
0001193125-25-301809	0000277751	JANUS INVESTMENT FUND	811-01879	W6UYDZFUOFJ4HQQ32382	151 Detroit Street		Denver	US-CO	US	80206	303-333-3863
0000940400-25-014474	0000929523	Prudential Investment Portfolios, Inc. 17	811-07215	54930028RC1CXKGYQ890	655 Broad Street		Newark	US-NJ	US	07102-4077	1-800-225-1852
0000035402-25-003068	0000819118	Fidelity Concord Street Trust	811-05251	EEX0N4ID1C226M44VF22	245 Summer Street		Boston	US-MA	US	02210	1-800-FIDELITY
0001004726-25-003167	0001100663	iShares Trust	811-09729	5493000860OXIC4B5K91	400 Howard Street		San Francisco	US-CA	US	94105	800-474-2737
0001193125-25-334097	0001380175	American Funds Target Date Retirement Series	811-21981	549300LHAMB8X3UKXY85	333 South Hope Street	55th Floor	Los Angeles	US-CA	US	90071	9499755000
0001193125-25-334136	0001505612	American Funds Global Balanced Fund	811-22496	IW8BXWMJ747EV3OLWY78	6455 Irvine Center Drive		Irvine	US-CA	US	92618	9499755000
0000913181-25-000365	0000088525	Guggenheim Funds Trust	811-01136	54930033G24U3UGWK691	702 King Farm Blvd., Suite 200		Rockville	US-MD	US	20850	301-296-5100
0000940400-25-014353	0001100663	iShares Trust	811-09729	5493000860OXIC4B5K91	400 Howard Street		San Francisco	US-CA	US	94105	800-474-2737
0000106444-25-000232	0000106444	VANGUARD FIXED INCOME SECURITIES FUNDS	811-02368	549300F3N7VQKU6I4K64	100 Vanguard Boulevard		Malvern	US-PA	US	19355	610-669-1000
0000225997-25-000205	0000225997	VANGUARD MUNICIPAL BOND FUNDS	811-02687	5493005YO1ELB2VD2X90	100 Vanguard Boulevard		Malvern	US-PA	US	19355	610-669-1000
0000736054-25-000149	0000736054	VANGUARD STAR FUNDS	811-03919	5493005RYBM6XD8JKF03	100 Vanguard Boulevard		Malvern	US-PA	US	19355	610-669-1000
0000734383-25-000145	0000734383	VANGUARD SPECIALIZED FUNDS	811-03916	549300OM0CLBHZ9MZW59	100 Vanguard Boulevard		Malvern	US-PA	US	19355	610-669-1000
0001004655-25-000255	0001004655	VANGUARD WHITEHALL FUNDS	811-07443	5493006QD7VQBS2FQD13	100 Vanguard Boulevard		Malvern	US-PA	US	19355	610-669-1000
0002071691-25-009449	0001100663	iShares Trust	811-09729	5493000860OXIC4B5K91	400 Howard Street		San Francisco	US-CA	US	94105	800-474-2737
0000898745-25-000869	0000898745	Principal Funds, Inc	811-07572	549300HZGBXSW6DSXF23	801 Grand Ave		Des Moines	US-IA	US	50309	515-235-1719
0000035402-25-002869	0000754510	Fidelity Securities Fund	811-04118	LIUMB3NDWOFJPXVROE85	245 Summer Street		Boston	US-MA	US	02210	1-800-FIDELITY
